     2.100          NAVIGATION                              RINEX VERSION / TYPE
fic2rin                                 10/07/2009 01:23:01 PGM / RUN BY / DATE
                                                            END OF HEADER
29 09 10  6 16  0  0.0  .636973418295D-04  .318323145621D-11  .000000000000D+00
     .870000000000D+02 -.372500000000D+02  .482377235805D-08 -.188874738102D+01
    -.201724469662D-05  .302170182113D-02  .744126737118D-05  .515359227753D+04
     .230400000000D+06 -.335276126862D-07  .248618122910D+01  .651925802231D-07
     .960229487150D+00  .234250000000D+03 -.127320384182D+01 -.807069331963D-08
    -.590738892360D-09  .100000000000D+01  .155200000000D+04  .000000000000D+00
     .340000000000D+01  .000000000000D+00 -.884756445885D-08  .870000000000D+02
     .223206000000D+06  .400000000000D+01
30 09 10  6 16  0  0.0  .182693358511D-03  .306954461848D-11  .000000000000D+00
     .340000000000D+02  .240625000000D+02  .502913805522D-08  .282541558211D+01
     .117719173431D-05  .119373190682D-01  .638887286186D-05  .515365796089D+04
     .230400000000D+06  .180676579475D-06  .136785541251D+01 -.186264514923D-06
     .953015456279D+00  .248875000000D+03  .145959968513D+01 -.805426406386D-08
     .488591780380D-09  .100000000000D+01  .155200000000D+04  .000000000000D+00
     .240000000000D+01  .000000000000D+00 -.791624188423D-08  .340000000000D+02
     .223206000000D+06  .400000000000D+01
31 09 10  6 16  0  0.0 -.633574090898D-04  .682121026330D-12  .000000000000D+00
     .950000000000D+02 -.499062500000D+02  .398409452496D-08 -.117576277602D+01
    -.266730785370D-05  .708182365634D-02  .116974115372D-04  .515380594063D+04
     .230400000000D+06 -.132247805595D-06  .363564417152D+00  .931322574615D-08
     .974620538526D+00  .167343750000D+03 -.114005759047D+01 -.774567978151D-08
     .356443418728D-09  .100000000000D+01  .155200000000D+04  .000000000000D+00
     .240000000000D+01  .000000000000D+00 -.130385160446D-07  .950000000000D+02
     .223206000000D+06  .400000000000D+01
32 09 10  6 16  0  0.0  .183006282896D-03 -.727595761418D-11  .000000000000D+00
     .860000000000D+02  .707187500000D+02  .461769234542D-08 -.249927765649D+00
     .380910933018D-05  .132642777171D-01  .290758907795D-05  .515369930077D+04
     .230400000000D+06 -.249594449997D-06 -.164483161912D+01 -.154599547386D-06
     .961888446492D+00  .327343750000D+03 -.110794308760D+01 -.853356974315D-08
     .193579491934D-09  .100000000000D+01  .155200000000D+04  .000000000000D+00
     .240000000000D+01  .000000000000D+00 -.325962901115D-08  .860000000000D+02
     .223206000000D+06  .400000000000D+01
27 09 10  6 15 59 44.0  .889226794243D-04  .329691829393D-11  .000000000000D+00
     .340000000000D+02 -.900312500000D+02  .385301763651D-08  .137703883394D+01
    -.490993261337D-05  .213860193035D-01  .118315219879D-04  .515374228859D+04
     .230384000000D+06 -.108033418655D-06  .307677012737D+00 -.534579157829D-06
     .976222667890D+00  .165843750000D+03 -.153793634428D+01 -.776782356103D-08
     .287154818294D-09  .100000000000D+01  .155200000000D+04  .000000000000D+00
     .240000000000D+01  .000000000000D+00 -.419095158577D-08  .340000000000D+02
     .223986000000D+06  .400000000000D+01
26 09 10  6 15 59 44.0  .898307189345D-05 -.125055521494D-11  .000000000000D+00
     .490000000000D+02 -.958437500000D+02  .377622872366D-08 -.154405129212D+01
    -.470876693726D-05  .196688326541D-01  .392086803913D-05  .515361045647D+04
     .230384000000D+06  .474974513054D-06 -.623601005245D+00  .726431608200D-07
     .992172100065D+00  .309062500000D+03  .103163105441D+01 -.779925344164D-08
    -.198222542479D-09  .100000000000D+01  .155200000000D+04  .000000000000D+00
     .240000000000D+01  .000000000000D+00 -.605359673500D-08  .490000000000D+02
     .224736000000D+06  .400000000000D+01
 2 09 10  6 15 59 44.0  .178522430360D-03  .341060513165D-11  .000000000000D+00
     .100000000000D+02  .757187500000D+02  .473376860903D-08  .705747006521D+00
     .382587313652D-05  .911975384224D-02  .116471201181D-04  .515372581482D+04
     .230384000000D+06  .216066837311D-06 -.279190153916D+01  .130385160446D-07
     .941204281416D+00  .143187500000D+03  .290041936131D+01 -.809855162290D-08
    -.318941856637D-09  .100000000000D+01  .155200000000D+04  .000000000000D+00
     .240000000000D+01  .000000000000D+00 -.172294676304D-07  .100000000000D+02
     .225456000000D+06  .400000000000D+01
22 09 10  6 15 59 44.0  .189368613064D-03 -.909494701773D-12  .000000000000D+00
     .100000000000D+02  .903750000000D+02  .515664336632D-08  .209880271316D+01
     .462494790554D-05  .534514151514D-02  .286288559437D-05  .515366025543D+04
     .230384000000D+06  .931322574615D-08 -.169792408929D+01 -.104308128357D-06
     .937867052213D+00  .310156250000D+03 -.188621236050D+01 -.856785688563D-08
     .228580949885D-09  .100000000000D+01  .155200000000D+04  .000000000000D+00
     .240000000000D+01  .000000000000D+00 -.176951289177D-07  .100000000000D+02
     .229446000000D+06  .400000000000D+01
 2 09 10  6 17 59 44.0  .178547110409D-03  .341060513165D-11  .000000000000D+00
     .240000000000D+02  .740312500000D+02  .474662628747D-08  .175594842788D+01
     .395253300667D-05  .911978981458D-02  .114962458611D-04  .515372501755D+04
     .237584000000D+06  .100582838058D-06 -.279195893822D+01  .121071934700D-06
     .941201889545D+00  .147000000000D+03  .290036827621D+01 -.801069082028D-08
    -.389659088008D-09  .100000000000D+01  .155200000000D+04  .000000000000D+00
     .240000000000D+01  .000000000000D+00 -.172294676304D-07  .240000000000D+02
     .230406000000D+06  .400000000000D+01
22 09 10  6 17 59 44.0  .189362093806D-03 -.909494701773D-12  .000000000000D+00
     .110000000000D+02  .106875000000D+03  .508056876894D-08 -.313442347579D+01
     .552833080292D-05  .534318201244D-02  .273250043392D-05  .515366459465D+04
     .237584000000D+06  .186264514923D-07 -.169798545431D+01 -.502914190292D-07
     .937868757975D+00  .313375000000D+03 -.188597965851D+01 -.853071248127D-08
     .213937482783D-09  .100000000000D+01  .155200000000D+04  .000000000000D+00
     .240000000000D+01  .000000000000D+00 -.176951289177D-07  .110000000000D+02
     .230406000000D+06  .400000000000D+01
26 09 10  6 17 59 44.0  .897422432899D-05 -.125055521494D-11  .000000000000D+00
     .620000000000D+02 -.940625000000D+02  .389694803781D-08 -.493848758943D+00
    -.459887087345D-05  .196688119322D-01  .467523932457D-05  .515361001396D+04
     .237584000000D+06 -.335276126862D-07 -.623658982151D+00  .303611159325D-06
     .992168047782D+00  .307843750000D+03  .103164340144D+01 -.832713257278D-08
    -.248224625266D-09  .100000000000D+01  .155200000000D+04  .000000000000D+00
     .240000000000D+01  .000000000000D+00 -.605359673500D-08  .620000000000D+02
     .230406000000D+06  .400000000000D+01
27 09 10  6 17 59 44.0  .889459624887D-04  .329691829393D-11  .000000000000D+00
     .350000000000D+02 -.895625000000D+02  .372586948313D-08  .242724304947D+01
    -.458583235741D-05  .213858354837D-01  .120792537928D-04  .515373981857D+04
     .237584000000D+06  .258907675743D-06  .307624479349D+00 -.875443220139D-07
     .976226560715D+00  .151468750000D+03 -.153800593969D+01 -.723673001028D-08
     .154649298907D-09  .100000000000D+01  .155200000000D+04  .000000000000D+00
     .240000000000D+01  .000000000000D+00 -.419095158577D-08  .350000000000D+02
     .230406000000D+06  .400000000000D+01
 1 09 10  6 18  0  0.0 -.589932315052D-04 -.113686837722D-11  .000000000000D+00
     .250000000000D+02  .215625000000D+02  .616632828090D-08 -.202179208245D+01
     .107847154140D-05  .380676542409D-02  .634975731373D-05  .515369379234D+04
     .237600000000D+06  .856816768646D-07  .140474091840D+01  .186264514923D-08
     .961758906559D+00  .257218750000D+03  .978073230002D+00 -.811962392921D-08
     .620025826564D-09  .100000000000D+01  .155200000000D+04  .000000000000D+00
     .240000000000D+01  .630000000000D+02 -.190921127796D-07  .250000000000D+02
     .230406000000D+06  .400000000000D+01
 3 09 10  6 18  0  0.0  .456984154880D-03  .522959453519D-11  .000000000000D+00
     .720000000000D+02 -.389375000000D+02  .588810240596D-08  .149238708789D+01
    -.203028321266D-05  .125318092760D-01  .620447099209D-05  .515365247345D+04
     .237600000000D+06 -.324100255966D-06  .234231965579D+01  .409781932831D-07
     .926545892001D+00  .245875000000D+03  .949989708667D+00 -.876965100545D-08
    -.391087718945D-09  .100000000000D+01  .155200000000D+04  .000000000000D+00
     .340000000000D+01  .000000000000D+00 -.465661287308D-08  .720000000000D+02
     .230406000000D+06  .400000000000D+01
 4 09 10  6 18  0  0.0 -.298678874969D-03 -.176214598469D-10  .000000000000D+00
     .600000000000D+01  .765000000000D+02  .474591197200D-08 -.169775896387D+01
     .386685132980D-05  .889687251765D-02  .109635293484D-04  .515355471802D+04
     .237600000000D+06  .115483999252D-06 -.277376372930D+01 -.987201929092D-07
     .940382035144D+00  .157812500000D+03  .534246467818D+00 -.795461705602D-08
    -.134291308058D-09  .100000000000D+01  .155200000000D+04  .000000000000D+00
     .240000000000D+01  .000000000000D+00 -.605359673500D-08  .600000000000D+01
     .230406000000D+06  .400000000000D+01
 5 09 10  6 18  0  0.0 -.718296505511D-04  .932232069317D-11  .000000000000D+00
     .670000000000D+02  .105281250000D+03  .467769484477D-08  .312202664362D+01
     .539235770702D-05  .149205722846D-02  .271573662758D-05  .515357175636D+04
     .237600000000D+06  .651925802231D-07 -.173390104405D+01 -.335276126862D-07
     .961107859737D+00  .329687500000D+03  .224851815169D+00 -.841785063727D-08
     .216794744657D-09  .100000000000D+01  .155200000000D+04  .000000000000D+00
     .240000000000D+01  .000000000000D+00 -.931322574615D-08  .670000000000D+02
     .230406000000D+06  .400000000000D+01
